0 THORAD DELTA 1 DEB
1 08143U 74089M   13282.48971943  .00000013  00000-0  29540-3 0  4661
2 08143 101.2426 289.6597 0195277 019.6316 134.2797 12.60695388788900
0 THORAD DELTA 1 DEB
1 08143U 74089M   13286.98511081  .00000036  00000-0  41970-3 0  4681
2 08143 101.2418 293.9805 0195211 010.6473 016.6372 12.60696382789474
0 THORAD DELTA 1 DEB
1 08143U 74089M   13289.47510659  .00000007  00000-0  26429-3 0  4699
2 08143 101.2417 296.3736 0195171 005.6649 157.5063 12.60696854789787
0 THORAD DELTA 1 DEB
1 08143U 74089M   13291.52871340 -.00000007  00000-0  19309-3 0  4707
2 08143 101.2420 298.3470 0195158 001.5583 117.8206 12.60696958790049
0 THORAD DELTA 1 DEB
1 08143U 74089M   13293.59110648  .00000005  00000-0  25452-3 0  4717
2 08143 101.2423 300.3288 0195141 357.4399 118.0086 12.60697170790308
0 THORAD DELTA 1 DEB
1 08143U 74089M   13295.94630253  .00000045  00000-0  46706-3 0  4727
2 08143 101.2424 302.5923 0195109 352.7241 007.1018 12.60697607790608
